{"fetched_at":"2026-03-29T16:36:15Z","count":15609,"tles":[{"name":"STARLINK-35761","line1":"1 66961U 25288C   26087.92508361  .00031157  00000+0  11353-2 0  9991","line2":"2 66961  43.0022 274.4404 0002742 277.4171  82.6369 15.27627455 18232","category":"Starlink"}]}