{
  "norad_id": 66961,
  "name": "STARLINK-35761",
  "history": [
    {
      "epoch": "2026-03-28T22:12:07.223904",
      "apogee_km": 484.7883006417578,
      "perigee_km": 481.02570411085435,
      "latitude_deg": 41.36673909052595,
      "longitude_deg": -115.09197344002314,
      "semi_major_axis_km": 6861.044002376306,
      "eccentricity": 0.0002742,
      "inclination_deg": 43.0022,
      "raan_deg": 274.4404,
      "arg_perigee_deg": 277.4171,
      "mean_anomaly_deg": 82.6369,
      "mean_motion_rev_day": 15.27627455
    }
  ]
}